[{"OBJECT_NAME":"STARLINK-30806","OBJECT_ID":"2023-167F","EPOCH":"2025-09-25T03:44:48.494112","MEAN_MOTION":15.02547387,"ECCENTRICITY":0.00010725,"INCLINATION":43.0028,"RA_OF_ASC_NODE":325.4792,"ARG_OF_PERICENTER":270.4945,"MEAN_ANOMALY":89.5774,"EPHEMERIS_TYPE":0,"CLASSIFICATION_TYPE":"U","NORAD_CAT_ID":58180,"ELEMENT_SET_NO":999,"REV_AT_EPOCH":10605,"BSTAR":0.00019902518,"MEAN_MOTION_DOT":2.487e-5,"MEAN_MOTION_DDOT":0},{"OBJECT_NAME":"STARLINK-30821","OBJECT_ID":"2023-167G","EPOCH":"2025-09-25T03:19:15.999168","MEAN_MOTION":15.02533268,"ECCENTRICITY":0.00019772,"INCLINATION":43.0055,"RA_OF_ASC_NODE":325.3461,"ARG_OF_PERICENTER":290.8309,"MEAN_ANOMALY":69.2321,"EPHEMERIS_TYPE":0,"CLASSIFICATION_TYPE":"U","NORAD_CAT_ID":58181,"ELEMENT_SET_NO":999,"REV_AT_EPOCH":10605,"BSTAR":-3.9816192e-5,"MEAN_MOTION_DOT":-7.42e-6,"MEAN_MOTION_DDOT":0},{"OBJECT_NAME":"STARLINK-30778","OBJECT_ID":"2023-167H","EPOCH":"2025-09-25T03:14:29.271264","MEAN_MOTION":15.02533783,"ECCENTRICITY":4.663e-5,"INCLINATION":42.9966,"RA_OF_ASC_NODE":325.3185,"ARG_OF_PERICENTER":165.4039,"MEAN_ANOMALY":194.6817,"EPHEMERIS_TYPE":0,"CLASSIFICATION_TYPE":"U","NORAD_CAT_ID":58182,"ELEMENT_SET_NO":999,"REV_AT_EPOCH":10605,"BSTAR":-0.00016397691,"MEAN_MOTION_DOT":-2.417e-5,"MEAN_MOTION_DDOT":0},{"OBJECT_NAME":"STARLINK-30809","OBJECT_ID":"2023-167J","EPOCH":"2025-09-24T13:50:27.091680","MEAN_MOTION":15.02531019,"ECCENTRICITY":0.00014335,"INCLINATION":43.0043,"RA_OF_ASC_NODE":328.8769,"ARG_OF_PERICENTER":253.8957,"MEAN_ANOMALY":106.1728,"EPHEMERIS_TYPE":0,"CLASSIFICATION_TYPE":"U","NORAD_CAT_ID":58183,"ELEMENT_SET_NO":999,"REV_AT_EPOCH":10596,"BSTAR":2.703193e-5,"MEAN_MOTION_DOT":1.61e-6,"MEAN_MOTION_DDOT":0},{"OBJECT_NAME":"STARLINK-30801","OBJECT_ID":"2023-167K","EPOCH":"2025-09-25T04:07:12.760608","MEAN_MOTION":15.02533335,"ECCENTRICITY":0.00013703,"INCLINATION":43.0041,"RA_OF_ASC_NODE":325.5987,"ARG_OF_PERICENTER":260.7485,"MEAN_ANOMALY":99.3203,"EPHEMERIS_TYPE":0,"CLASSIFICATION_TYPE":"U","NORAD_CAT_ID":58184,"ELEMENT_SET_NO":999,"REV_AT_EPOCH":10605,"BSTAR":1.3451712e-5,"MEAN_MOTION_DOT":-2.2e-7,"MEAN_MOTION_DDOT":0},{"OBJECT_NAME":"STARLINK-30793","OBJECT_ID":"2023-167L","EPOCH":"2025-09-24T11:12:23.672160","MEAN_MOTION":15.02528068,"ECCENTRICITY":0.0001735,"INCLINATION":43.0044,"RA_OF_ASC_NODE":328.9093,"ARG_OF_PERICENTER":269.7914,"MEAN_ANOMALY":90.273,"EPHEMERIS_TYPE":0,"CLASSIFICATION_TYPE":"U","NORAD_CAT_ID":58185,"ELEMENT_SET_NO":999,"REV_AT_EPOCH":10595,"BSTAR":-3.0352784e-5,"MEAN_MOTION_DOT":-6.14e-6,"MEAN_MOTION_DDOT":0},{"OBJECT_NAME":"STARLINK-30755","OBJECT_ID":"2023-167M","EPOCH":"2025-09-25T05:30:09.434304","MEAN_MOTION":15.02531088,"ECCENTRICITY":0.00017116,"INCLINATION":43.0074,"RA_OF_ASC_NODE":325.1731,"ARG_OF_PERICENTER":270.4531,"MEAN_ANOMALY":89.6115,"EPHEMERIS_TYPE":0,"CLASSIFICATION_TYPE":"U","NORAD_CAT_ID":58186,"ELEMENT_SET_NO":999,"REV_AT_EPOCH":10606,"BSTAR":5.3016508e-5,"MEAN_MOTION_DOT":5.12e-6,"MEAN_MOTION_DDOT":0},{"OBJECT_NAME":"STARLINK-30760","OBJECT_ID":"2023-167N","EPOCH":"2025-09-24T04:44:41.387136","MEAN_MOTION":15.02532457,"ECCENTRICITY":0.0001038,"INCLINATION":43.0018,"RA_OF_ASC_NODE":330.3301,"ARG_OF_PERICENTER":281.1348,"MEAN_ANOMALY":78.9378,"EPHEMERIS_TYPE":0,"CLASSIFICATION_TYPE":"U","NORAD_CAT_ID":58187,"ELEMENT_SET_NO":999,"REV_AT_EPOCH":10591,"BSTAR":-9.8815284e-5,"MEAN_MOTION_DOT":-1.538e-5,"MEAN_MOTION_DDOT":0},{"OBJECT_NAME":"STARLINK-30826","OBJECT_ID":"2023-167P","EPOCH":"2025-09-25T03:52:50.234592","MEAN_MOTION":15.02527286,"ECCENTRICITY":5.218e-5,"INCLINATION":43.0016,"RA_OF_ASC_NODE":325.5261,"ARG_OF_PERICENTER":261.7532,"MEAN_ANOMALY":98.3252,"EPHEMERIS_TYPE":0,"CLASSIFICATION_TYPE":"U","NORAD_CAT_ID":58188,"ELEMENT_SET_NO":999,"REV_AT_EPOCH":10605,"BSTAR":7.2795489e-5,"MEAN_MOTION_DOT":7.8e-6,"MEAN_MOTION_DDOT":0},{"OBJECT_NAME":"STARLINK-30796","OBJECT_ID":"2023-167Q","EPOCH":"2025-09-24T04:01:41.699136","MEAN_MOTION":15.02537778,"ECCENTRICITY":0.00013981,"INCLINATION":43.0056,"RA_OF_ASC_NODE":330.9659,"ARG_OF_PERICENTER":263.9687,"MEAN_ANOMALY":96.0996,"EPHEMERIS_TYPE":0,"CLASSIFICATION_TYPE":"U","NORAD_CAT_ID":58189,"ELEMENT_SET_NO":999,"REV_AT_EPOCH":10590,"BSTAR":6.9892688e-5,"MEAN_MOTION_DOT":7.41e-6,"MEAN_MOTION_DDOT":0},{"OBJECT_NAME":"STARLINK-30820","OBJECT_ID":"2023-167R","EPOCH":"2025-09-24T10:29:24.690048","MEAN_MOTION":15.02532159,"ECCENTRICITY":8.972e-5,"INCLINATION":43.0046,"RA_OF_ASC_NODE":329.5477,"ARG_OF_PERICENTER":275.9792,"MEAN_ANOMALY":84.0948,"EPHEMERIS_TYPE":0,"CLASSIFICATION_TYPE":"U","NORAD_CAT_ID":58190,"ELEMENT_SET_NO":999,"REV_AT_EPOCH":10594,"BSTAR":-7.7008401e-5,"MEAN_MOTION_DOT":-1.243e-5,"MEAN_MOTION_DDOT":0},{"OBJECT_NAME":"STARLINK-30785","OBJECT_ID":"2023-167S","EPOCH":"2025-09-25T05:18:58.386240","MEAN_MOTION":15.02520254,"ECCENTRICITY":0.00016325,"INCLINATION":43.0027,"RA_OF_ASC_NODE":325.1171,"ARG_OF_PERICENTER":281.7312,"MEAN_ANOMALY":78.3347,"EPHEMERIS_TYPE":0,"CLASSIFICATION_TYPE":"U","NORAD_CAT_ID":58191,"ELEMENT_SET_NO":999,"REV_AT_EPOCH":10606,"BSTAR":0.00025428466,"MEAN_MOTION_DOT":3.231e-5,"MEAN_MOTION_DDOT":0},{"OBJECT_NAME":"STARLINK-30807","OBJECT_ID":"2023-167T","EPOCH":"2025-09-24T13:26:29.228928","MEAN_MOTION":15.02529787,"ECCENTRICITY":0.000105,"INCLINATION":43.0041,"RA_OF_ASC_NODE":328.7517,"ARG_OF_PERICENTER":269.7947,"MEAN_ANOMALY":90.2775,"EPHEMERIS_TYPE":0,"CLASSIFICATION_TYPE":"U","NORAD_CAT_ID":58192,"ELEMENT_SET_NO":999,"REV_AT_EPOCH":10596,"BSTAR":-5.6528638e-5,"MEAN_MOTION_DOT":-9.67e-6,"MEAN_MOTION_DDOT":0},{"OBJECT_NAME":"STARLINK-30822","OBJECT_ID":"2023-167U","EPOCH":"2025-09-25T03:38:26.936160","MEAN_MOTION":15.02530782,"ECCENTRICITY":0.00017003,"INCLINATION":43.0037,"RA_OF_ASC_NODE":325.4477,"ARG_OF_PERICENTER":279.4449,"MEAN_ANOMALY":80.6201,"EPHEMERIS_TYPE":0,"CLASSIFICATION_TYPE":"U","NORAD_CAT_ID":58193,"ELEMENT_SET_NO":999,"REV_AT_EPOCH":10605,"BSTAR":-3.627093e-6,"MEAN_MOTION_DOT":-2.53e-6,"MEAN_MOTION_DDOT":0},{"OBJECT_NAME":"STARLINK-30830","OBJECT_ID":"2023-167V","EPOCH":"2025-09-24T11:34:46.132032","MEAN_MOTION":15.02534988,"ECCENTRICITY":0.00010619,"INCLINATION":43.0038,"RA_OF_ASC_NODE":329.0119,"ARG_OF_PERICENTER":273.634,"MEAN_ANOMALY":86.4381,"EPHEMERIS_TYPE":0,"CLASSIFICATION_TYPE":"U","NORAD_CAT_ID":58194,"ELEMENT_SET_NO":999,"REV_AT_EPOCH":10595,"BSTAR":-7.5824372e-5,"MEAN_MOTION_DOT":-1.228e-5,"MEAN_MOTION_DDOT":0},{"OBJECT_NAME":"STARLINK-30827","OBJECT_ID":"2023-167W","EPOCH":"2025-09-24T11:31:34.289472","MEAN_MOTION":15.02537145,"ECCENTRICITY":0.00013192,"INCLINATION":43.0044,"RA_OF_ASC_NODE":329.0157,"ARG_OF_PERICENTER":264.1801,"MEAN_ANOMALY":95.8891,"EPHEMERIS_TYPE":0,"CLASSIFICATION_TYPE":"U","NORAD_CAT_ID":58195,"ELEMENT_SET_NO":999,"REV_AT_EPOCH":10595,"BSTAR":2.3261599e-5,"MEAN_MOTION_DOT":1.11e-6,"MEAN_MOTION_DDOT":0},{"OBJECT_NAME":"STARLINK-30798","OBJECT_ID":"2023-167X","EPOCH":"2025-09-25T04:31:11.368128","MEAN_MOTION":15.02527184,"ECCENTRICITY":0.00016806,"INCLINATION":43.0054,"RA_OF_ASC_NODE":325.7218,"ARG_OF_PERICENTER":257.9638,"MEAN_ANOMALY":102.1017,"EPHEMERIS_TYPE":0,"CLASSIFICATION_TYPE":"U","NORAD_CAT_ID":58196,"ELEMENT_SET_NO":999,"REV_AT_EPOCH":10605,"BSTAR":-0.00013444717,"MEAN_MOTION_DOT":-2.019e-5,"MEAN_MOTION_DDOT":0},{"OBJECT_NAME":"STARLINK-30762","OBJECT_ID":"2023-167Y","EPOCH":"2025-09-25T05:09:22.438656","MEAN_MOTION":15.02535262,"ECCENTRICITY":0.00012397,"INCLINATION":43.0048,"RA_OF_ASC_NODE":325.059,"ARG_OF_PERICENTER":269.4072,"MEAN_ANOMALY":90.6628,"EPHEMERIS_TYPE":0,"CLASSIFICATION_TYPE":"U","NORAD_CAT_ID":58197,"ELEMENT_SET_NO":999,"REV_AT_EPOCH":10606,"BSTAR":0.00010483459,"MEAN_MOTION_DOT":1.213e-5,"MEAN_MOTION_DDOT":0},{"OBJECT_NAME":"STARLINK-30800","OBJECT_ID":"2023-170A","EPOCH":"2025-09-24T14:36:14.613408","MEAN_MOTION":15.0253267,"ECCENTRICITY":0.00016506,"INCLINATION":43.0051,"RA_OF_ASC_NODE":18.6087,"ARG_OF_PERICENTER":275.0043,"MEAN_ANOMALY":85.0611,"EPHEMERIS_TYPE":0,"CLASSIFICATION_TYPE":"U","NORAD_CAT_ID":58206,"ELEMENT_SET_NO":999,"REV_AT_EPOCH":10529,"BSTAR":-5.761804e-6,"MEAN_MOTION_DOT":-2.82e-6,"MEAN_MOTION_DDOT":0},{"OBJECT_NAME":"STARLINK-30845","OBJECT_ID":"2023-170B","EPOCH":"2025-09-25T07:16:30.770688","MEAN_MOTION":15.02531068,"ECCENTRICITY":0.00010942,"INCLINATION":42.9992,"RA_OF_ASC_NODE":14.3799,"ARG_OF_PERICENTER":258.1496,"MEAN_ANOMALY":101.9224,"EPHEMERIS_TYPE":0,"CLASSIFICATION_TYPE":"U","NORAD_CAT_ID":58207,"ELEMENT_SET_NO":999,"REV_AT_EPOCH":10540,"BSTAR":5.2921195e-5,"MEAN_MOTION_DOT":5.11e-6,"MEAN_MOTION_DDOT":0},{"OBJECT_NAME":"STARLINK-30841","OBJECT_ID":"2023-170C","EPOCH":"2025-09-24T00:29:04.293312","MEAN_MOTION":15.02534523,"ECCENTRICITY":0.00011986,"INCLINATION":43.0068,"RA_OF_ASC_NODE":21.9196,"ARG_OF_PERICENTER":265.7525,"MEAN_ANOMALY":94.318,"EPHEMERIS_TYPE":0,"CLASSIFICATION_TYPE":"U","NORAD_CAT_ID":58208,"ELEMENT_SET_NO":999,"REV_AT_EPOCH":10520,"BSTAR":2.9237996e-5,"MEAN_MOTION_DOT":1.91e-6,"MEAN_MOTION_DDOT":0},{"OBJECT_NAME":"STARLINK-30839","OBJECT_ID":"2023-170D","EPOCH":"2025-09-25T07:54:51.880896","MEAN_MOTION":15.02520117,"ECCENTRICITY":0.00010216,"INCLINATION":43.004,"RA_OF_ASC_NODE":14.5596,"ARG_OF_PERICENTER":281.9201,"MEAN_ANOMALY":78.1527,"EPHEMERIS_TYPE":0,"CLASSIFICATION_TYPE":"U","NORAD_CAT_ID":58209,"ELEMENT_SET_NO":999,"REV_AT_EPOCH":10540,"BSTAR":0.00017795037,"MEAN_MOTION_DOT":2.2e-5,"MEAN_MOTION_DDOT":0},{"OBJECT_NAME":"STARLINK-30846","OBJECT_ID":"2023-170E","EPOCH":"2025-09-25T07:59:39.693120","MEAN_MOTION":15.02539334,"ECCENTRICITY":8.172e-5,"INCLINATION":43.0031,"RA_OF_ASC_NODE":14.5854,"ARG_OF_PERICENTER":266.3783,"MEAN_ANOMALY":93.6966,"EPHEMERIS_TYPE":0,"CLASSIFICATION_TYPE":"U","NORAD_CAT_ID":58210,"ELEMENT_SET_NO":999,"REV_AT_EPOCH":10540,"BSTAR":-4.1298412e-5,"MEAN_MOTION_DOT":-7.61e-6,"MEAN_MOTION_DDOT":0}]
